     2.100          NAVIGATION                              RINEX VERSION / TYPE
fic2rin                                 09/22/2017 00:14:33 PGM / RUN BY / DATE
                                                            END OF HEADER
17 17  9 21  2  0  0.0 -.155773479491D-03  .250111042988D-11  .000000000000D+00
     .116000000000D+03  .752500000000D+02  .379265797943D-08 -.280167904577D+01
     .400841236115D-05  .118608525954D-01  .106617808342D-04  .515368989182D+04
     .352800000000D+06  .141561031342D-06  .756295198822D+00 -.614672899246D-07
     .980966644970D+00  .182750000000D+03 -.184398777854D+01 -.752209903990D-08
     .518950187787D-09  .100000000000D+01  .196700000000D+04  .000000000000D+00
     .340000000000D+01  .000000000000D+00 -.111758708954D-07  .116000000000D+03
     .345606000000D+06  .400000000000D+01
18 17  9 21  2  0  0.0  .629972200841D-03  .795807864051D-12  .000000000000D+00
     .510000000000D+02 -.697812500000D+02  .525129016589D-08 -.132770537859D+01
    -.327080488205D-05  .181315373629D-01  .984035432339D-05  .515363469887D+04
     .352800000000D+06  .335276126862D-07  .275393306720D+01  .508502125740D-06
     .926333496777D+00  .170250000000D+03 -.178108685666D+01 -.847070998193D-08
    -.346800159904D-09  .100000000000D+01  .196700000000D+04  .000000000000D+00
     .340000000000D+01  .000000000000D+00 -.111758708954D-07  .510000000000D+02
     .345606000000D+06  .400000000000D+01
19 17  9 21  2  0  0.0 -.485197640955D-03  .193267624127D-11  .000000000000D+00
     .260000000000D+02  .719687500000D+02  .398695178683D-08  .183170809685D+00
     .394694507122D-05  .100149208447D-01  .996328890324D-05  .515367828941D+04
     .352800000000D+06 -.143423676491D-06  .803845447732D+00  .152736902237D-06
     .978266272283D+00  .199250000000D+03  .107125760796D+01 -.792890169915D-08
     .475019786481D-09  .100000000000D+01  .196700000000D+04  .000000000000D+00
     .240000000000D+01  .000000000000D+00 -.153668224812D-07  .260000000000D+02
     .345606000000D+06  .400000000000D+01
21 17  9 21  2  0  0.0 -.477668829262D-03  .306954461848D-11  .000000000000D+00
     .103000000000D+03  .325000000000D+01  .550594363037D-08 -.428376158741D+00
     .312924385071D-06  .239849995123D-01  .300817191601D-05  .515359481812D+04
     .352800000000D+06 -.273808836937D-06  .171377886920D+01  .223517417908D-06
     .940597518588D+00  .316781250000D+03 -.163970704049D+01 -.920538344117D-08
     .182864759908D-09  .100000000000D+01  .196700000000D+04  .000000000000D+00
     .240000000000D+01  .000000000000D+00 -.977888703346D-08  .103000000000D+03
     .345606000000D+06  .400000000000D+01
22 17  9 21  2  0  0.0 -.128761865199D-03 -.127329258248D-10  .000000000000D+00
     .740000000000D+02 -.825312500000D+02  .523236080597D-08  .283603147683D+01
    -.444427132607D-05  .725737819448D-02  .102743506432D-04  .515372978401D+04
     .352800000000D+06  .134110450745D-06  .275357475614D+01 -.372529029846D-07
     .924419999929D+00  .162843750000D+03 -.167465698873D+01 -.830034574272D-08
    -.417874549009D-09  .100000000000D+01  .196700000000D+04  .000000000000D+00
     .240000000000D+01  .000000000000D+00 -.176951289177D-07  .740000000000D+02
     .345606000000D+06  .400000000000D+01
23 17  9 21  2  0  0.0 -.217509455979D-03 -.341060513165D-12  .000000000000D+00
     .600000000000D+02  .816562500000D+02  .495342061557D-08  .210058129239D+01
     .419281423092D-05  .118616925320D-01  .112466514111D-04  .515368452263D+04
     .352800000000D+06 -.247731804848D-06 -.244369096513D+01 -.132247805595D-06
     .944307971840D+00  .155500000000D+03 -.242149320649D+01 -.820391315448D-08
     .561094800422D-09  .100000000000D+01  .196700000000D+04  .000000000000D+00
     .240000000000D+01  .000000000000D+00 -.204890966415D-07  .600000000000D+02
     .345606000000D+06  .400000000000D+01
24 17  9 21  2  0  0.0 -.399108976126D-04 -.454747350886D-12  .000000000000D+00
     .880000000000D+02  .640625000000D+01  .557701801947D-08  .157560982467D+01
     .420957803726D-06  .593906699214D-02  .244751572609D-05  .515367180824D+04
     .352800000000D+06 -.223517417908D-07 -.142107440607D+01  .210478901863D-06
     .943719676890D+00  .322812500000D+03  .466790140460D+00 -.887286959063D-08
    -.207151485834D-10  .100000000000D+01  .196700000000D+04  .000000000000D+00
     .240000000000D+01  .000000000000D+00  .279396772385D-08  .880000000000D+02
     .345606000000D+06  .400000000000D+01
25 17  9 21  2  0  0.0 -.459644477814D-03 -.636646291241D-11  .000000000000D+00
     .300000000000D+02 -.640000000000D+02  .410445668138D-08 -.391868126675D+00
    -.343844294548D-05  .657160650007D-02  .103246420622D-04  .515375834084D+04
     .352800000000D+06 -.409781932831D-07 -.335250456961D+00  .838190317154D-07
     .976579799840D+00  .187656250000D+03  .825153579553D+00 -.796783189218D-08
    -.556094592143D-09  .100000000000D+01  .196700000000D+04  .000000000000D+00
     .240000000000D+01  .000000000000D+00  .558793544769D-08  .300000000000D+02
     .345606000000D+06  .400000000000D+01
26 17  9 21  2  0  0.0 -.420233700424D-03  .108002495836D-10  .000000000000D+00
     .710000000000D+02 -.658750000000D+02  .444911389488D-08 -.966340625543D+00
    -.341609120369D-05  .190693989862D-02  .108145177364D-04  .515377043915D+04
     .352800000000D+06  .204890966415D-07 -.352723780178D+00 -.745058059692D-08
     .958258714133D+00  .172250000000D+03 -.950858569362D-02 -.800426198107D-08
    -.544665544649D-09  .100000000000D+01  .196700000000D+04  .000000000000D+00
     .240000000000D+01  .000000000000D+00  .745058059692D-08  .710000000000D+02
     .345606000000D+06  .400000000000D+01
27 17  9 21  2  0  0.0  .327596906573D-03  .488853402203D-11  .000000000000D+00
     .560000000000D+02  .879375000000D+02  .391587739773D-08 -.278085595029D+01
     .451505184174D-05  .492325960658D-02  .106599181890D-04  .515367518997D+04
     .352800000000D+06  .931322574615D-08  .703667159796D+00  .335276126862D-07
     .975856060619D+00  .181656250000D+03  .392828428527D+00 -.776603777236D-08
     .492520515456D-09  .100000000000D+01  .196700000000D+04  .000000000000D+00
     .240000000000D+01  .000000000000D+00  .139698386192D-08  .560000000000D+02
     .345606000000D+06  .400000000000D+01
28 17  9 21  2  0  0.0  .647492706776D-03  .318323145621D-11  .000000000000D+00
     .730000000000D+02 -.634375000000D+02  .369086802518D-08 -.189731031598D+01
    -.322423875332D-05  .198194518453D-01  .118110328913D-04  .515365886879D+04
     .352800000000D+06  .335276126862D-06 -.255252837197D+00  .305473804474D-06
     .988083713630D+00  .163281250000D+03 -.156454463562D+01 -.742459497847D-08
    -.575738267524D-09  .100000000000D+01  .196700000000D+04  .000000000000D+00
     .485000000000D+01  .000000000000D+00 -.111758708954D-07  .730000000000D+02
     .345606000000D+06  .400000000000D+01
29 17  9 21  2  0  0.0  .560521148145D-03 -.466116034659D-11  .000000000000D+00
     .780000000000D+02  .750000000000D+02  .389587656461D-08 -.153014686874D+01
     .388361513615D-05  .493164756335D-03  .993534922600D-05  .515356908989D+04
     .352800000000D+06  .745058059692D-08  .766565122194D+00 -.279396772385D-07
     .982124268138D+00  .201781250000D+03  .905917642580D+00 -.778925302508D-08
     .385373195198D-09  .100000000000D+01  .196700000000D+04  .000000000000D+00
     .240000000000D+01  .000000000000D+00 -.102445483208D-07  .780000000000D+02
     .345606000000D+06  .400000000000D+01
30 17  9 21  2  0  0.0  .139359384775D-03 -.216004991671D-11  .000000000000D+00
     .910000000000D+02 -.690625000000D+01  .546987069921D-08  .623829343350D+00
    -.430271029472D-06  .305052753538D-02  .241398811340D-05  .515362045288D+04
     .352800000000D+06 -.260770320892D-07 -.132833050250D+01 -.111758708954D-07
     .946379231237D+00  .321281250000D+03 -.305497222082D+01 -.880286667473D-08
    -.160363822654D-09  .100000000000D+01  .196700000000D+04  .000000000000D+00
     .240000000000D+01  .000000000000D+00  .372529029846D-08  .910000000000D+02
     .345606000000D+06  .400000000000D+01
31 17  9 21  2  0  0.0  .173935666680D-03 -.250111042988D-11  .000000000000D+00
     .790000000000D+02 -.151875000000D+02  .503878131404D-08  .436175067185D+00
    -.884756445885D-06  .852561916690D-02  .267103314400D-05  .515377606392D+04
     .352800000000D+06  .121071934700D-06 -.135412092023D+01 -.614672899246D-07
     .965394107305D+00  .327875000000D+03 -.241462995412D+00 -.858964350742D-08
    -.157149403046D-09  .100000000000D+01  .196700000000D+04  .000000000000D+00
     .240000000000D+01  .000000000000D+00 -.135041773319D-07  .790000000000D+02
     .345606000000D+06  .400000000000D+01
32 17  9 21  2  0  0.0 -.502889044583D-03 -.545696821064D-11  .000000000000D+00
     .700000000000D+02  .814375000000D+02  .458876256895D-08 -.219570924918D+01
     .423565506935D-05  .141355558299D-02  .101625919342D-04  .515376702690D+04
     .352800000000D+06  .745058059692D-08 -.244063635268D+01  .186264514923D-08
     .957912320002D+00  .182406250000D+03 -.255975751332D+01 -.806033574534D-08
     .490734726785D-09  .100000000000D+01  .196700000000D+04  .000000000000D+00
     .240000000000D+01  .000000000000D+00  .931322574615D-09  .700000000000D+02
     .345606000000D+06  .400000000000D+01
18 17  9 21  1 59 44.0  .629972666502D-03  .795807864051D-12  .000000000000D+00
     .200000000000D+01 -.697812500000D+02  .525129016589D-08 -.133003912645D+01
    -.327080488205D-05  .181315371301D-01  .984035432339D-05  .515363470268D+04
     .352784000000D+06  .335276126862D-07  .275393319447D+01  .508502125740D-06
     .926333518721D+00  .170250000000D+03 -.178108690348D+01 -.847070998193D-08
    -.346800159904D-09  .100000000000D+01  .196700000000D+04  .000000000000D+00
     .240000000000D+01  .000000000000D+00 -.111758708954D-07  .200000000000D+01
     .347256000000D+06  .400000000000D+01
